STARLINK-1502
1 15764C 20038AL  21326.15259556 -.00018004  00000-0 -12063-2 0  3264
2 15764  53.0535  58.0504 0001324  80.7990 129.5126 15.06416454    17
